MEAN_MOTION;ECCENTRICITY;INCLINATION;RA_OF_ASC_NODE;ARG_OF_PERICENTER;MEAN_ANOMALY;BSTAR;MEAN_MOTION_DOT;MEAN_MOTION_DDOT;TYPE
14.43279054;0.0002612;86.4466;116.1544;89.3094;270.8406;1.7214E-5;7.8E-7;0;Iridium
14.43279202;0.0002599;86.4464;115.8354;88.8353;271.3146;2.0685E-5;9.0E-7;0;Iridium
14.43279207;0.0002597;86.4464;115.8063;88.7288;271.4211;2.0409E-5;8.9E-7;0;Iridium
14.43279379;0.0002586;86.4462;115.4003;88.2558;271.894;2.381E-5;1.0E-6;0;Iridium
14.43279387;0.0002586;86.4462;115.3713;88.2708;271.8789;2.3672E-5;1.0E-6;0;Iridium
14.43279477;0.0002573;86.4461;115.0233;87.952;272.1975;2.3663E-5;1.0E-6;0;Iridium
14.43279479;0.0002571;86.4461;114.9943;87.8567;272.2929;2.2743E-5;9.7E-7;0;Iridium
14.43279603;0.0002568;86.446;114.5882;87.4657;272.6838;2.2772E-5;9.7E-7;0;Iridium
14.43279603;0.0002568;86.446;114.5882;87.4657;272.6838;2.2772E-5;9.7E-7;0;Iridium
14.43279707;0.0002565;86.4459;114.1822;87.1649;272.9846;2.1502E-5;9.3E-7;0;Iridium
14.43279725;0.0002559;86.4458;113.8341;86.836;273.3134;1.8331E-5;8.2E-7;0;Iridium
14.43279785;0.0002556;86.4458;113.7181;86.6789;273.4704;1.7941E-5;8.1E-7;0;Iridium
14.43279934;0.0002545;86.4457;113.3411;86.3129;273.8362;1.7845E-5;8.0E-7;0;Iridium
14.43279934;0.0002545;86.4457;113.3411;86.3129;273.8362;1.7845E-5;8.0E-7;0;Iridium
14.4327998;0.0002535;86.4457;113.2541;85.9107;274.2384;1.7715E-5;8.0E-7;0;Iridium
14.43280105;0.0002508;86.4455;112.819;85.3586;274.7902;1.5674E-5;7.3E-7;0;Iridium
14.43280314;0.0002491;86.4454;112.4708;85.1401;275.0084;1.7926E-5;8.1E-7;0;Iridium
14.43280365;0.000249;86.4454;112.3839;85.0725;275.076;1.9268E-5;8.5E-7;0;Iridium
14.43280487;0.0002475;86.4454;112.0937;84.9344;275.214;1.9907E-5;8.7E-7;0;Iridium
14.43280524;0.0002472;86.4453;111.9197;84.8657;275.2826;1.9192E-5;8.5E-7;0;Iridium
14.43280567;0.000246;86.4452;111.6586;84.6894;275.4587;1.6386E-5;7.5E-7;0;Iridium
14.43280567;0.000246;86.4452;111.6586;84.6894;275.4587;1.6386E-5;7.5E-7;0;Iridium
14.43280609;0.0002457;86.4452;111.5135;84.5182;275.6299;1.7367E-5;7.9E-7;0;Iridium
14.4328066;0.0002445;86.4451;111.2234;84.282;275.8659;1.5763E-5;7.3E-7;0;Iridium
14.43280666;0.0002444;86.4451;111.0783;84.2212;275.9267;1.5341E-5;7.2E-7;0;Iridium
14.43280707;0.0002431;86.4451;110.8172;83.9685;276.1793;1.3742E-5;6.6E-7;0;Iridium
14.43280713;0.000243;86.4451;110.7882;83.9306;276.2172;1.3719E-5;6.6E-7;0;Iridium
14.43280735;0.0002426;86.445;110.6432;83.8615;276.2862;1.4648E-5;6.9E-7;0;Iridium
14.4328075;0.0002414;86.445;110.4111;83.6674;276.4802;1.3367E-5;6.5E-7;0;Iridium
14.43280747;0.0002412;86.445;110.3821;83.6394;276.5081;1.2685E-5;6.3E-7;0;Iridium
14.43280775;0.0002409;86.4449;110.237;83.6228;276.5247;1.4058E-5;6.7E-7;0;Iridium
14.43280806;0.0002399;86.4449;109.9759;83.4886;276.6588;1.2925E-5;6.4E-7;0;Iridium
14.43280806;0.0002399;86.4449;109.9759;83.4886;276.6588;1.2925E-5;6.4E-7;0;Iridium
14.43280867;0.0002381;86.4448;109.5407;83.244;276.9032;1.2824E-5;6.3E-7;0;Iridium
14.43280967;0.0002366;86.4447;109.1635;82.9733;277.1737;1.4765E-5;7.0E-7;0;Iridium
14.43280988;0.0002364;86.4447;109.1345;82.9957;277.1513;1.4961E-5;7.1E-7;0;Iridium
14.43281204;0.000235;86.4446;108.7283;82.7961;277.3507;1.952E-5;8.6E-7;0;Iridium
14.43281204;0.000235;86.4446;108.7283;82.7961;277.3507;1.952E-5;8.6E-7;0;Iridium
14.43281295;0.0002342;86.4446;108.5543;82.7495;277.3972;2.165E-5;9.3E-7;0;Iridium
14.43277817;0.0002324;86.4447;108.3511;83.2936;276.8529;2.1947E-5;9.4E-7;0;Iridium
14.43277948;0.0002323;86.4446;108.148;82.8273;277.3192;2.1685E-5;9.3E-7;0;Iridium
14.43278032;0.0002313;86.4446;107.9159;82.6474;277.499;2.3712E-5;1.0E-6;0;Iridium
14.43277963;0.0002312;86.4446;107.8869;82.5994;277.5469;1.1019E-5;5.7E-7;0;Iridium
14.43278045;0.0002304;86.4446;107.7129;82.615;277.5313;1.5968E-5;7.4E-7;0;Iridium
14.43278105;0.0002293;86.4446;107.4807;82.5851;277.5611;1.4742E-5;7.0E-7;0;Iridium
14.43278101;0.0002292;86.4446;107.4517;82.5515;277.5946;1.3606E-5;6.6E-7;0;Iridium
14.43278147;0.0002285;86.4446;107.3067;82.5857;277.5603;1.5002E-5;7.1E-7;0;Iridium
14.43278156;0.0002271;86.4446;107.0455;82.4916;277.6543;1.0043E-5;5.4E-7;0;Iridium
14.43278158;0.0002267;86.4446;106.9005;82.4491;277.6967;9.0074E-6;5.1E-7;0;Iridium
14.43278175;0.0002265;86.4446;106.8425;82.4248;277.721;8.4674E-6;4.9E-7;0;Iridium
14.43278232;0.0002251;86.4446;106.4653;82.3779;277.7677;8.1609E-6;4.8E-7;0;Iridium
14.43278218;0.0002246;86.4446;106.3782;82.3883;277.7573;5.9999E-6;4.0E-7;0;Iridium
14.43278252;0.0002238;86.4446;106.2331;82.3857;277.7598;6.402E-6;4.2E-7;0;Iridium
14.43278268;0.0002231;86.4446;106.0591;82.435;277.7104;6.6056E-6;4.2E-7;0;Iridium
14.43278302;0.0002218;86.4446;105.7979;82.3787;277.7666;6.1042E-6;4.1E-7;0;Iridium
14.43278341;0.0002213;86.4446;105.6238;82.34;277.8052;7.7167E-6;4.6E-7;0;Iridium
14.43278379;0.0002204;86.4446;105.4207;82.4215;277.7237;8.603E-6;4.9E-7;0;Iridium
14.43278414;0.0002199;86.4446;105.2176;82.3778;277.7672;9.7092E-6;5.3E-7;0;Iridium
14.43278478;0.0002185;86.4446;104.9565;82.3851;277.7598;1.0874E-5;5.7E-7;0;Iridium
14.43278511;0.000218;86.4446;104.7824;82.3909;277.754;1.2115E-5;6.1E-7;0;Iridium
14.43278643;0.0002168;86.4446;104.5503;82.4238;277.7209;1.646E-5;7.6E-7;0;Iridium
14.43278724;0.0002163;86.4446;104.3762;82.3926;277.7521;1.8914E-5;8.4E-7;0;Iridium
14.43278819;0.0002154;86.4447;104.1151;82.5416;277.603;2.0088E-5;8.8E-7;0;Iridium
14.43278937;0.0002132;86.4447;103.709;82.5833;277.561;2.0544E-5;8.9E-7;0;Iridium
14.43279002;0.0002128;86.4447;103.5349;82.6127;277.5316;2.1519E-5;9.3E-7;0;Iridium
14.4327907;0.0002117;86.4448;103.3028;82.5665;277.5776;2.1068E-5;9.1E-7;0;Iridium
14.43279127;0.0002112;86.4448;103.1288;82.6069;277.5372;2.1085E-5;9.1E-7;0;Iridium
14.43279178;0.00021;86.4449;102.8967;82.8176;277.3264;1.9201E-5;8.5E-7;0;Iridium
14.43279268;0.0002105;86.4449;102.6936;83.7711;276.373;1.9528E-5;8.6E-7;0;Iridium
14.43279312;0.0002077;86.445;102.2875;83.2355;276.9082;1.5622E-5;7.3E-7;0;Iridium
14.43279352;0.0002072;86.4451;102.0554;83.6602;276.4835;1.3463E-5;6.5E-7;0;Iridium
14.43279422;0.0002057;86.4451;101.6202;83.9053;276.2382;1.05E-5;5.6E-7;0;Iridium
14.43279422;0.0002057;86.4451;101.6202;83.9053;276.2382;1.05E-5;5.6E-7;0;Iridium
14.43279452;0.0002053;86.4451;101.4462;83.9608;276.1827;1.01E-5;5.4E-7;0;Iridium
14.43279499;0.0002044;86.4452;101.2141;84.2095;275.9339;9.205E-6;5.1E-7;0;Iridium
14.43279504;0.0002053;86.4452;101.04;85.1031;275.0404;8.5849E-6;4.9E-7;0;Iridium
14.43279589;0.0002054;86.4453;100.8079;85.6182;274.5254;9.2876E-6;5.1E-7;0;Iridium
14.43279643;0.0002033;86.4453;100.6049;84.4357;275.7076;9.8085E-6;5.3E-7;0;Iridium
14.43279759;0.000204;86.4454;100.3728;85.792;274.3514;1.2903E-5;6.4E-7;0;Iridium
14.43279759;0.000204;86.4454;100.3728;85.792;274.3514;1.2903E-5;6.4E-7;0;Iridium
14.4327981;0.0002026;86.4454;100.1987;85.068;275.0752;1.3689E-5;6.6E-7;0;Iridium
14.43279953;0.0002024;86.4455;99.9667;85.361;274.7822;1.7859E-5;8.0E-7;0;Iridium
14.43279953;0.0002024;86.4455;99.9667;85.361;274.7822;1.7859E-5;8.0E-7;0;Iridium
14.43280048;0.000202;86.4455;99.7636;85.2252;274.9179;1.9935E-5;8.7E-7;0;Iridium
14.43280117;0.0002007;86.4456;99.5606;85.0088;275.1342;2.1022E-5;9.1E-7;0;Iridium
14.43280179;0.0002003;86.4456;99.3286;85.2019;274.941;2.1434E-5;9.2E-7;0;Iridium
14.43280254;0.0001997;86.4457;99.1255;85.4711;274.6718;2.2639E-5;9.6E-7;0;Iridium
14.43280312;0.0001996;86.4457;98.9515;85.5884;274.5545;2.3464E-5;9.9E-7;0;Iridium
14.43280343;0.0001991;86.4457;98.7195;85.7631;274.3797;2.2045E-5;9.4E-7;0;Iridium
14.43280411;0.0001992;86.4458;98.5165;85.8079;274.335;2.2437E-5;9.6E-7;0;Iridium
14.43280457;0.0001989;86.4459;98.2845;86.1536;273.9892;2.1327E-5;9.2E-7;0;Iridium
14.43280464;0.000199;86.4459;98.2555;86.1737;273.9692;2.1334E-5;9.2E-7;0;Iridium
14.43280528;0.0001987;86.4459;98.1105;86.2903;273.8525;2.2343E-5;9.5E-7;0;Iridium
14.43280576;0.0001983;86.446;97.8785;86.7027;273.4401;2.1166E-5;9.1E-7;0;Iridium
14.43280659;0.0001987;86.446;97.6755;87.0575;273.0853;2.1543E-5;9.3E-7;0;Iridium
14.43280773;0.0001984;86.4461;97.2984;87.3162;272.8266;2.1125E-5;9.1E-7;0;Iridium
14.4328079;0.0001986;86.4461;97.2695;87.4063;272.7365;2.1036E-5;9.1E-7;0;Iridium
14.43280858;0.0001981;86.4462;97.0375;87.6598;272.4829;1.9565E-5;8.6E-7;0;Iridium
14.43280915;0.0001981;86.4462;96.8345;87.8083;272.3344;1.889E-5;8.4E-7;0;Iridium
14.4328099;0.0001979;86.4463;96.6314;88.0151;272.1277;1.8367E-5;8.2E-7;0;Iridium
14.43281079;0.0001985;86.4464;96.4284;88.2383;271.9046;1.8491E-5;8.2E-7;0;Iridium
14.4328119;0.0001985;86.4465;96.1674;88.5378;271.605;1.894E-5;8.4E-7;0;Iridium
14.43281243;0.0001987;86.4465;96.0224;88.6791;271.4638;1.8974E-5;8.4E-7;0;Iridium
14.43281327;0.0001985;86.4466;95.7905;88.9746;271.1682;1.8289E-5;8.2E-7;0;Iridium
14.432814;0.0001991;86.4467;95.5875;89.1982;270.9447;1.8351E-5;8.2E-7;0;Iridium
14.43281466;0.0001991;86.4468;95.3845;89.3707;270.7722;1.7994E-5;8.1E-7;0;Iridium
14.43281466;0.0001991;86.4468;95.3845;89.3707;270.7722;1.7994E-5;8.1E-7;0;Iridium
14.4328153;0.0001999;86.4468;95.1815;89.5915;270.5515;1.8182E-5;8.1E-7;0;Iridium
14.43281586;0.0002005;86.447;94.9496;90.0874;270.0557;1.719E-5;7.8E-7;0;Iridium
14.43281586;0.0002005;86.447;94.9496;90.0874;270.0557;1.719E-5;7.8E-7;0;Iridium
14.43281602;0.0002016;86.447;94.7466;90.4415;269.7017;1.5598E-5;7.3E-7;0;Iridium
14.43281643;0.0002016;86.447;94.5436;90.5809;269.5623;1.5118E-5;7.1E-7;0;Iridium
14.43281699;0.0002021;86.4471;94.3406;90.7405;269.4027;1.5646E-5;7.3E-7;0;Iridium
14.43281751;0.0002023;86.4472;94.1087;90.7261;269.4171;1.5658E-5;7.3E-7;0;Iridium
14.43281751;0.0002023;86.4472;94.1087;90.7261;269.4171;1.5658E-5;7.3E-7;0;Iridium
14.43281802;0.0002027;86.4472;93.9347;90.822;269.3213;1.6694E-5;7.6E-7;0;Iridium
14.43281855;0.0002033;86.4473;93.7027;91.2204;268.923;1.6913E-5;7.7E-7;0;Iridium
14.43281917;0.0002032;86.4474;93.2968;91.061;269.0824;1.6553E-5;7.6E-7;0;Iridium
14.43282086;0.0002047;86.4475;92.862;91.5159;268.6276;1.9357E-5;8.5E-7;0;Iridium
14.43282086;0.0002047;86.4475;92.862;91.5159;268.6276;1.9357E-5;8.5E-7;0;Iridium
